OBJECT_NAME,OBJECT_ID,EPOCH,MEAN_MOTION,ECCENTRICITY,INCLINATION,RA_OF_ASC_NODE,ARG_OF_PERICENTER,MEAN_ANOMALY,EPHEMERIS_TYPE,CLASSIFICATION_TYPE,NORAD_CAT_ID,ELEMENT_SET_NO,REV_AT_EPOCH,BSTAR,MEAN_MOTION_DOT,MEAN_MOTION_DDOT
SALSAT,2020-068K,2026-05-11T10:38:57.528960,15.29251188,.00115726,97.8862,132.2890,75.4801,284.7721,0,U,46495,999,30974,.17904045E-3,.5006E-4,0
ICEYE-X6,2020-068M,2026-05-11T21:00:57.677184,15.04320933,.0006446,98.0964,123.8205,200.9856,159.1105,0,U,46497,999,30777,.9969E-4,.1322E-4,0
NETSAT-4,2020-068U,2026-05-11T05:30:48.955392,15.42631433,.00076761,97.8621,136.5388,95.0170,265.1952,0,U,46504,999,31007,.27495893E-3,.11889E-3,0
NETSAT-3,2020-068V,2026-05-11T17:25:55.408800,15.41412498,.0007517,97.8668,135.3388,106.3702,253.8370,0,U,46505,999,31006,.27498E-3,.11414E-3,0
NETSAT-1,2020-068W,2026-05-11T11:30:39.807360,15.33739661,.00067007,97.8754,129.8268,125.9205,234.2659,0,U,46506,999,30967,.24889813E-3,.8038E-4,0
NETSAT-2,2020-068X,2026-05-11T18:28:43.000032,15.44440259,.0006193,97.8635,136.8936,114.1091,246.0805,0,U,46507,999,31011,.31481E-3,.14483E-3,0
TIANQI-6,2020-076D,2026-05-11T18:26:35.265408,15.06944584,.0010519,34.9993,271.9355,211.7302,148.2774,0,U,46810,999,30308,.15495E-3,.2338E-4,0
KSM1-C,2020-081B,2026-05-11T18:58:47.217792,15.26145143,.0002934,36.8940,283.5344,267.2076,92.8337,0,U,46906,999,30360,.2186E-3,.5684E-4,0
KSM1-D,2020-081C,2026-05-11T19:27:40.081248,15.24216052,.0004958,36.8969,291.7329,303.7175,56.3100,0,U,46907,999,30354,.21122E-3,.5176E-4,0
KSM1-A,2020-081H,2026-05-11T18:37:09.375744,15.25402132,.0002939,36.8965,285.7472,357.3501,2.7232,0,U,46912,999,30361,.20973E-3,.5327E-4,0
R2,2020-081J,2026-05-11T17:16:12.781632,15.24910302,.0007689,36.8978,285.8954,327.1844,32.8426,0,U,46913,999,30641,.20013E-3,.5005E-4,0
KSM1-B,2020-081K,2026-05-11T19:25:33.398976,15.24014957,.000634,36.9022,292.2610,324.2798,35.7526,0,U,46914,999,30663,.1972E-3,.4797E-4,0
GONETS-M 20,2020-091A,2026-05-11T18:46:46.804224,12.42892624,.0019967,82.5043,325.0735,259.9108,99.9719,0,U,47227,999,24655,.25308E-3,.45E-6,0
GONETS-M 21,2020-091B,2026-05-11T20:04:47.330688,12.42884546,.0013808,82.4966,323.7691,274.8927,85.0576,0,U,47228,999,24655,.12691E-3,.27E-6,0
GONETS-M 22,2020-091C,2026-05-11T19:26:15.619200,12.42890551,.0020844,82.5025,324.6675,254.8569,105.0205,0,U,47229,999,24650,-.18967E-3,-.17E-6,0
CUBEL,2021-006AM,2026-05-11T09:38:52.151136,15.40416335,.00050977,97.2365,182.3538,315.3760,44.7076,0,U,47448,999,29409,.13596354E-3,.5417E-4,0
ARKTIKA-M 1,2021-016A,2026-05-09T02:45:45.668160,2.00634688,.72733431,63.2307,63.2755,269.7576,14.8669,0,U,47719,999,3800,0,-.78E-6,0
STARLINK-2342,2021-021Z,2026-05-11T20:04:01.918848,15.54360628,.0003416,53.1573,326.0131,202.9464,157.1395,0,U,47883,999,28621,.11199E-2,.74898E-3,0
GRUS-1B,2021-022C,2026-05-11T20:40:53.971392,14.98893248,.0017205,97.5425,16.2474,81.7004,278.6169,0,U,47934,999,28045,.20104E-4,.186E-5,0
UNISAT-7,2021-022P,2026-05-11T15:22:45.214176,15.39491183,.0008621,97.3919,36.2075,192.1305,167.9735,0,U,47945,999,28423,.21785E-3,.8473E-4,0
GLOBAL-9,2021-023G,2026-05-11T06:57:26.002656,15.45123725,.00022295,44.9806,97.6678,87.6809,272.4336,0,U,47971,999,28923,.27696559E-3,.1307E-3,0
AII-BRAVO,2021-034C,2026-05-11T17:53:32.901216,15.03194421,.0007032,97.5658,187.4903,48.4471,311.7357,0,U,48270,999,27414,.18417E-3,.2432E-4,0
TYVAK-182A,2021-034D,2026-05-11T02:55:18.575328,15.05804986,.00072568,97.5738,190.6881,98.1950,262.0100,0,U,48271,999,27425,.26228895E-3,.3744E-4,0
CSS (TIANHE),2021-035A,2026-05-11T11:54:40.595616,15.62123975,.0004284,41.4667,185.1700,287.6488,72.3883,0,U,48274,999,28743,.36027E-3,.32325E-3,0
TYVAK-0130,2021-041BF,2026-05-11T11:09:58.561632,15.27053901,.00110939,52.9932,196.5549,58.3575,301.8503,0,U,48606,999,27477,.1759241E-3,.4389E-4,0
HAIYANG-2D,2021-043A,2026-05-11T20:32:31.096608,13.83372684,.0011411,66.0001,35.1523,273.5653,86.4110,0,U,48621,999,25152,.68313E-4,-.6E-7,0
TYVAK-0173,2021-059P,2026-05-11T20:49:54.787872,14.81764396,.0010278,96.0084,217.2545,143.8867,216.3046,0,U,48892,999,26286,.14323E-3,.1099E-4,0
